ONEWEB-0597             
1 54663U 22166X   25089.17567156  .00001702  00000+0  40891-2 0  9996
2 54663  87.9319 332.5193 0002152  88.1391 271.9989 13.21838490113356
ONEWEB-0600             
1 54664U 22166Y   25088.93124089 -.00000209  00000+0 -53848-3 0  9994
2 54664  87.9297 332.5858 0001950  82.2799 277.8557 13.21825327112824
ONEWEB-0601             
1 54665U 22166Z   25088.92335703 -.00000368  00000+0 -92367-3 0  9996
2 54665  87.9321 332.5789 0001894  94.0973 266.0377 13.21824256113010
ONEWEB-0602             
1 54666U 22166AA  25088.96436109 -.00000007  00000+0 -47465-4 0  9993
2 54666  87.9320 332.5724 0002027  85.3967 274.7399 13.21823306112861
ONEWEB-0603             
1 54667U 22166AB  25089.19618237  .00001337  00000+0  32051-2 0  9992
2 54667  87.9286 332.4910 0002049  85.9650 274.1718 13.21817716113282
ONEWEB-0604             
1 54668U 22166AC  25088.72938189  .00000097  00000+0  20341-3 0  9994
2 54668  87.9312 332.5846 0002060  84.5220 275.6149 13.21829610112721
ONEWEB-0605             
1 54669U 22166AD  25088.95016534 -.00000473  00000+0 -11761-2 0  9996
2 54669  87.9313 332.5718 0001832 105.1742 254.9595 13.21824409112823
ONEWEB-0606             
1 54670U 22166AE  25089.19933510  .00000038  00000+0  59938-4 0  9992
2 54670  87.9315 332.5284 0001673  75.9528 284.1792 13.21823536113379
